[{"OBJECT_NAME":"STARLINK-35374","OBJECT_ID":"2025-243T","EPOCH":"2026-03-09T17:54:16.967808","MEAN_MOTION":15.30198998,"ECCENTRICITY":0.00011126,"INCLINATION":53.1594,"RA_OF_ASC_NODE":244.9003,"ARG_OF_PERICENTER":109.014,"MEAN_ANOMALY":251.0982,"EPHEMERIS_TYPE":0,"CLASSIFICATION_TYPE":"U","NORAD_CAT_ID":66194,"ELEMENT_SET_NO":999,"REV_AT_EPOCH":2066,"BSTAR":0.00042994464,"MEAN_MOTION_DOT":0.00012395,"MEAN_MOTION_DDOT":0},{"OBJECT_NAME":"SPACEMOBILE-005 DEB","OBJECT_ID":"2024-163K","EPOCH":"2026-03-09T07:33:15.902496","MEAN_MOTION":15.31481997,"ECCENTRICITY":0.00072885,"INCLINATION":52.9762,"RA_OF_ASC_NODE":31.7924,"ARG_OF_PERICENTER":175.8731,"MEAN_ANOMALY":184.2329,"EPHEMERIS_TYPE":0,"CLASSIFICATION_TYPE":"U","NORAD_CAT_ID":62373,"ELEMENT_SET_NO":999,"REV_AT_EPOCH":8280,"BSTAR":0.00063853778,"MEAN_MOTION_DOT":0.00019381,"MEAN_MOTION_DDOT":0}]
